     2.100          NAVIGATION                              RINEX VERSION / TYPE
fic2rin                                 05/28/2012 00:05:55 PGM / RUN BY / DATE
                                                            END OF HEADER
13 12  5 27 20  0  0.0  .204745680094D-03 -.238742359215D-11  .000000000000D+00
     .720000000000D+02  .834375000000D+01  .391373445132D-08 -.107208274935D+00
     .223517417908D-06  .500498327892D-02  .912882387638D-05  .515366737938D+04
     .720000000000D+05 -.707805156708D-07  .957494529616D+00 -.838190317154D-07
     .985793203775D+00  .215812500000D+03  .200133225294D+01 -.783389774186D-08
    -.162863926793D-09  .100000000000D+01  .169000000000D+04  .000000000000D+00
     .340000000000D+01  .000000000000D+00 -.111758708954D-07  .720000000000D+02
     .648060000000D+05  .400000000000D+01
14 12  5 27 20  0  0.0  .203791540116D-03  .909494701773D-12  .000000000000D+00
     .720000000000D+02  .212812500000D+02  .411195699380D-08  .725478177021D-01
     .981613993645D-06  .632526411209D-02  .935606658459D-05  .515359718323D+04
     .720000000000D+05 -.316649675369D-07  .930789853922D+00  .409781932831D-07
     .978646946974D+00  .211062500000D+03 -.207119596121D+01 -.795604568695D-08
    -.220009164265D-09  .100000000000D+01  .169000000000D+04  .000000000000D+00
     .240000000000D+01  .000000000000D+00 -.884756445885D-08  .720000000000D+02
     .648060000000D+05  .400000000000D+01
15 12  5 27 20  0  0.0 -.914619304240D-04 -.113686837722D-12  .000000000000D+00
     .750000000000D+02  .110312500000D+02  .481841499204D-08 -.416517131828D+00
     .616535544395D-06  .438335502986D-02  .831298530102D-05  .515356710625D+04
     .720000000000D+05  .689178705215D-07  .842962266499D+00  .558793544769D-08
     .945529939997D+00  .208656250000D+03  .567736328726D-01 -.826570144250D-08
    -.170007081477D-09  .100000000000D+01  .169000000000D+04  .000000000000D+00
     .240000000000D+01  .000000000000D+00 -.102445483208D-07  .750000000000D+02
     .648060000000D+05  .400000000000D+01
16 12  5 27 20  0  0.0 -.236296560615D-03 -.125055521494D-11  .000000000000D+00
     .510000000000D+02 -.343125000000D+02  .442982737723D-08  .134519710532D+01
    -.148266553879D-05  .664902385324D-02  .436045229435D-05  .515367403984D+04
     .720000000000D+05  .353902578354D-07  .300273539680D+01  .670552253723D-07
     .980922944681D+00  .303062500000D+03 -.143990155025D-01 -.819962726167D-08
    -.152506352502D-09  .100000000000D+01  .169000000000D+04  .000000000000D+00
     .240000000000D+01  .000000000000D+00 -.977888703346D-08  .510000000000D+02
     .648060000000D+05  .400000000000D+01
17 12  5 27 20  0  0.0  .125582329929D-03 -.284217094304D-11  .000000000000D+00
     .990000000000D+02 -.652812500000D+02  .447732935588D-08  .383157232174D+00
    -.331737101078D-05  .735902553424D-02  .888109207153D-05  .515368809509D+04
     .720000000000D+05 -.838190317154D-07 -.224044585897D+01  .135973095894D-06
     .962859174561D+00  .211781250000D+03 -.229435741258D+01 -.807890794752D-08
    -.158578033983D-09  .100000000000D+01  .169000000000D+04  .000000000000D+00
     .240000000000D+01  .000000000000D+00 -.107102096081D-07  .990000000000D+02
     .648060000000D+05  .400000000000D+01
18 12  5 27 20  0  0.0  .197735149413D-03  .181898940355D-11  .000000000000D+00
     .510000000000D+02  .123125000000D+02  .540736809573D-08  .186335551192D+01
     .592321157455D-06  .133409199771D-01  .609643757343D-05  .515369284439D+04
     .720000000000D+05 -.277534127235D-06 -.172642245322D+00 -.242143869400D-06
     .930001332300D+00  .245031250000D+03 -.217599965818D+01 -.855999941548D-08
    -.560737642688D-10  .100000000000D+01  .169000000000D+04  .000000000000D+00
     .240000000000D+01  .000000000000D+00 -.107102096081D-07  .510000000000D+02
     .648060000000D+05  .400000000000D+01
19 12  5 27 20  0  0.0 -.269464217126D-03 -.375166564481D-11  .000000000000D+00
     .131000000000D+03 -.713750000000D+02  .446875757026D-08 -.449067162958D+00
    -.380165874958D-05  .837217643857D-02  .944547355175D-05  .515358098793D+04
     .720000000000D+05  .212341547012D-06 -.218741181336D+01  .204890966415D-07
     .960196799708D+00  .197562500000D+03  .166621066150D+00 -.810426614664D-08
    -.218580533328D-09  .100000000000D+01  .169000000000D+04  .000000000000D+00
     .240000000000D+01  .000000000000D+00 -.144354999065D-07  .131000000000D+03
     .648060000000D+05  .400000000000D+01
20 12  5 27 20  0  0.0  .635585747659D-04  .113686837722D-12  .000000000000D+00
     .210000000000D+02  .233437500000D+02  .535093717373D-08  .222548707688D+01
     .118836760521D-05  .496252614539D-02  .573694705963D-05  .515369122505D+04
     .720000000000D+05  .614672899246D-07 -.226345366753D+00 -.633299350739D-07
     .930444448723D+00  .251593750000D+03  .129177228503D+01 -.847356724380D-08
     .317870383435D-10  .100000000000D+01  .169000000000D+04  .000000000000D+00
     .240000000000D+01  .000000000000D+00 -.791624188423D-08  .210000000000D+02
     .648060000000D+05  .400000000000D+01
21 12  5 27 20  0  0.0 -.226441770792D-03 -.250111042988D-11  .000000000000D+00
     .370000000000D+02  .320312500000D+02  .498556481164D-08  .293729884729D+01
     .144727528095D-05  .191585415741D-01  .929459929466D-05  .515361225128D+04
     .720000000000D+05  .409781932831D-07 -.122343685509D+01 -.173225998878D-06
     .931086245514D+00  .181593750000D+03 -.224875704621D+01 -.796247452617D-08
     .278225874939D-09  .100000000000D+01  .169000000000D+04  .000000000000D+00
     .240000000000D+01  .000000000000D+00 -.111758708954D-07  .370000000000D+02
     .648060000000D+05  .400000000000D+01
22 12  5 27 20  0  0.0  .144143123180D-03  .454747350886D-12  .000000000000D+00
     .750000000000D+02  .167812500000D+02  .555344560901D-08  .104837635205D+01
     .881031155586D-06  .611532398034D-02  .594370067120D-05  .515367388153D+04
     .720000000000D+05 -.106170773506D-06 -.169263407803D+00 -.931322574615D-08
     .927722285871D+00  .246875000000D+03 -.201507052101D+01 -.869214777713D-08
    -.120719314158D-09  .100000000000D+01  .169000000000D+04  .000000000000D+00
     .340000000000D+01  .000000000000D+00 -.167638063431D-07  .750000000000D+02
     .648060000000D+05  .400000000000D+01
23 12  5 27 20  0  0.0  .201163813472D-03 -.375166564481D-11  .000000000000D+00
     .700000000000D+02  .250000000000D+01  .449947313540D-08 -.844170907472D+00
     .763684511185D-07  .791186396964D-02  .850670039654D-05  .515362995338D+04
     .720000000000D+05  .152736902237D-06  .878685172376D+00 -.117346644402D-06
     .960253780367D+00  .211406250000D+03 -.300960926850D+01 -.810105172704D-08
    -.171078554680D-09  .100000000000D+01  .169000000000D+04  .000000000000D+00
     .240000000000D+01  .000000000000D+00 -.200234353542D-07  .700000000000D+02
     .648060000000D+05  .400000000000D+01
25 12  5 27 20  0  0.0  .345432199538D-04  .454747350886D-12  .000000000000D+00
     .480000000000D+02 -.351562500000D+02  .461090634847D-08  .241188368384D+01
    -.189431011677D-05  .169102987275D-02  .453181564808D-05  .515370969582D+04
     .720000000000D+05 -.763684511185D-07  .295052816031D+01 -.689178705215D-07
     .968922519421D+00  .295406250000D+03  .678933401947D+00 -.823105714228D-08
    -.157149403046D-10  .100000000000D+01  .169000000000D+04  .000000000000D+00
     .240000000000D+01  .000000000000D+00  .558793544769D-08  .480000000000D+02
     .648060000000D+05  .400000000000D+01
26 12  5 27 20  0  0.0 -.390145927668D-03  .966338120634D-11  .000000000000D+00
     .450000000000D+02  .231875000000D+02  .401588156330D-08 -.993500249742D+00
     .160746276379D-05  .209190143505D-01  .864639878273D-05  .515366792488D+04
     .720000000000D+05 -.242143869400D-07  .951441142840D+00  .486150383949D-06
     .983333121234D+00  .229343750000D+03  .119698515158D+01 -.800497629654D-08
    -.153934983439D-09  .100000000000D+01  .169000000000D+04  .000000000000D+00
     .240000000000D+01  .000000000000D+00 -.605359673500D-08  .450000000000D+02
     .648060000000D+05  .400000000000D+01
27 12  5 27 20  0  0.0  .392435584217D-03  .397903932026D-11  .000000000000D+00
     .270000000000D+02  .430312500000D+02  .425410577201D-08 -.108475713512D+00
     .215321779251D-05  .217096339911D-01  .729411840439D-05  .515372688103D+04
     .720000000000D+05 -.227242708206D-06  .187562015481D+01 -.288709998131D-06
     .981837998477D+00  .256468750000D+03 -.108041119610D+01 -.830677458193D-08
     .218223375594D-09  .100000000000D+01  .169000000000D+04  .000000000000D+00
     .240000000000D+01  .000000000000D+00 -.419095158577D-08  .270000000000D+02
     .648060000000D+05  .400000000000D+01
28 12  5 27 20  0  0.0  .148542225361D-03  .397903932026D-11  .000000000000D+00
     .430000000000D+02 -.334375000000D+02  .449268713845D-08  .973527538301D+00
    -.183284282684D-05  .178583331872D-01  .494904816151D-05  .515362909698D+04
     .720000000000D+05 -.283122062683D-06  .300946402999D+01  .223517417908D-07
     .979282770670D+00  .301562500000D+03 -.182772442902D+01 -.843749431265D-08
    -.107504477993D-09  .100000000000D+01  .169000000000D+04  .000000000000D+00
     .240000000000D+01  .000000000000D+00 -.107102096081D-07  .430000000000D+02
     .648060000000D+05  .400000000000D+01
29 12  5 27 20  0  0.0  .317366328090D-03  .386535248253D-11  .000000000000D+00
     .330000000000D+02 -.583125000000D+02  .433339478900D-08 -.309239952427D+01
    -.309012830257D-05  .227085291408D-02  .966526567936D-05  .515358082199D+04
     .720000000000D+05  .111758708954D-07 -.223187550701D+01  .447034835815D-07
     .963394378751D+00  .193625000000D+03 -.112892948863D+01 -.788711424425D-08
    -.151077721565D-09  .100000000000D+01  .169000000000D+04  .000000000000D+00
     .240000000000D+01  .000000000000D+00 -.931322574615D-08  .330000000000D+02
     .648060000000D+05  .400000000000D+01
